OTTER                   
1 62623U 25009Q   26068.72300813  .00012198  00000+0  45151-3 0  9990
2 62623  97.4065 151.3812 0003573 310.7710  49.3219 15.27809545 63722
STARLINK-33958          
1 63850U 25093Q   26068.39605712  .00030737  00000+0  11217-2 0  9999
2 63850  43.0022  79.8737 0001471 260.8576  99.2109 15.27582198 47765
